CCSDS_OMM_VERS = 2.0
CREATION_DATE  = 
ORIGINATOR     = 

OBJECT_NAME    = IDEFIX & ARIANE 42P R/B
OBJECT_ID      = 2002-021B
CENTER_NAME    = EARTH
REF_FRAME      = TEME
TIME_SYSTEM    = UTC
MEAN_ELEMENT_THEORY = SGP/SGP4

EPOCH          = 2026-02-27T20:19:30.510624
MEAN_MOTION    = 14.31017833
ECCENTRICITY   = .00110338
INCLINATION    = 98.5859
RA_OF_ASC_NODE = 357.5714
ARG_OF_PERICENTER = 212.3468
MEAN_ANOMALY   = 147.7040

EPHEMERIS_TYPE = 0
CLASSIFICATION_TYPE = U
NORAD_CAT_ID   = 27422
ELEMENT_SET_NO = 999
REV_AT_EPOCH   = 24261
BSTAR          = .11860068E-3
MEAN_MOTION_DOT = .268E-5
MEAN_MOTION_DDOT = 0

CCSDS_OMM_VERS = 2.0
CREATION_DATE  = 
ORIGINATOR     = 

OBJECT_NAME    = AQUA
OBJECT_ID      = 2002-022A
CENTER_NAME    = EARTH
REF_FRAME      = TEME
TIME_SYSTEM    = UTC
MEAN_ELEMENT_THEORY = SGP/SGP4

EPOCH          = 2026-02-27T21:22:35.031072
MEAN_MOTION    = 14.61948355
ECCENTRICITY   = .00007932
INCLINATION    = 98.4155
RA_OF_ASC_NODE = 26.0786
ARG_OF_PERICENTER = 51.2384
MEAN_ANOMALY   = 334.5155

EPHEMERIS_TYPE = 0
CLASSIFICATION_TYPE = U
NORAD_CAT_ID   = 27424
ELEMENT_SET_NO = 999
REV_AT_EPOCH   = 26730
BSTAR          = .22543812E-3
MEAN_MOTION_DOT = .108E-4
MEAN_MOTION_DDOT = 0

CCSDS_OMM_VERS = 2.0
CREATION_DATE  = 
ORIGINATOR     = 

OBJECT_NAME    = CZ-4B R/B
OBJECT_ID      = 2002-024C
CENTER_NAME    = EARTH
REF_FRAME      = TEME
TIME_SYSTEM    = UTC
MEAN_ELEMENT_THEORY = SGP/SGP4

EPOCH          = 2026-02-27T21:49:04.902528
MEAN_MOTION    = 14.14545714
ECCENTRICITY   = .00509063
INCLINATION    = 98.8862
RA_OF_ASC_NODE = 112.3641
ARG_OF_PERICENTER = 51.6946
MEAN_ANOMALY   = 121.6698

EPHEMERIS_TYPE = 0
CLASSIFICATION_TYPE = U
NORAD_CAT_ID   = 27432
ELEMENT_SET_NO = 999
REV_AT_EPOCH   = 22785
BSTAR          = .45840127E-4
MEAN_MOTION_DOT = .45E-6
MEAN_MOTION_DDOT = 0

CCSDS_OMM_VERS = 2.0
CREATION_DATE  = 
ORIGINATOR     = 

OBJECT_NAME    = MIDORI II (ADEOS-II)
OBJECT_ID      = 2002-056A
CENTER_NAME    = EARTH
REF_FRAME      = TEME
TIME_SYSTEM    = UTC
MEAN_ELEMENT_THEORY = SGP/SGP4

EPOCH          = 2026-02-27T20:42:43.311456
MEAN_MOTION    = 14.29276149
ECCENTRICITY   = .00019147
INCLINATION    = 98.7750
RA_OF_ASC_NODE = 17.2739
ARG_OF_PERICENTER = 56.9728
MEAN_ANOMALY   = 303.1637

EPHEMERIS_TYPE = 0
CLASSIFICATION_TYPE = U
NORAD_CAT_ID   = 27597
ELEMENT_SET_NO = 999
REV_AT_EPOCH   = 20889
BSTAR          = .13172037E-3
MEAN_MOTION_DOT = .29E-5
MEAN_MOTION_DDOT = 0

CCSDS_OMM_VERS = 2.0
CREATION_DATE  = 
ORIGINATOR     = 

OBJECT_NAME    = H-2A R/B
OBJECT_ID      = 2002-056E
CENTER_NAME    = EARTH
REF_FRAME      = TEME
TIME_SYSTEM    = UTC
MEAN_ELEMENT_THEORY = SGP/SGP4

EPOCH          = 2026-02-27T20:47:10.207968
MEAN_MOTION    = 14.33752988
ECCENTRICITY   = .0069881
INCLINATION    = 98.3183
RA_OF_ASC_NODE = 19.6068
ARG_OF_PERICENTER = 189.9328
MEAN_ANOMALY   = 224.7028

EPHEMERIS_TYPE = 0
CLASSIFICATION_TYPE = U
NORAD_CAT_ID   = 27601
ELEMENT_SET_NO = 999
REV_AT_EPOCH   = 21270
BSTAR          = .10984685E-3
MEAN_MOTION_DOT = .272E-5
MEAN_MOTION_DDOT = 0

CCSDS_OMM_VERS = 2.0
CREATION_DATE  = 
ORIGINATOR     = 

OBJECT_NAME    = CZ-4B R/B
OBJECT_ID      = 2003-049C
CENTER_NAME    = EARTH
REF_FRAME      = TEME
TIME_SYSTEM    = UTC
MEAN_ELEMENT_THEORY = SGP/SGP4

EPOCH          = 2026-02-27T23:05:42.599040
MEAN_MOTION    = 14.55008725
ECCENTRICITY   = .0046998
INCLINATION    = 98.6869
RA_OF_ASC_NODE = 53.4863
ARG_OF_PERICENTER = 261.2594
MEAN_ANOMALY   = 98.3277

EPHEMERIS_TYPE = 0
CLASSIFICATION_TYPE = U
NORAD_CAT_ID   = 28059
ELEMENT_SET_NO = 999
REV_AT_EPOCH   = 18518
BSTAR          = .11535297E-3
MEAN_MOTION_DOT = .452E-5
MEAN_MOTION_DDOT = 0

CCSDS_OMM_VERS = 2.0
CREATION_DATE  = 
ORIGINATOR     = 

OBJECT_NAME    = CZ-2C R/B
OBJECT_ID      = 2004-012C
CENTER_NAME    = EARTH
REF_FRAME      = TEME
TIME_SYSTEM    = UTC
MEAN_ELEMENT_THEORY = SGP/SGP4

EPOCH          = 2026-02-27T19:39:28.713312
MEAN_MOTION    = 15.63222378
ECCENTRICITY   = .00137167
INCLINATION    = 97.7260
RA_OF_ASC_NODE = 123.1855
ARG_OF_PERICENTER = 349.7928
MEAN_ANOMALY   = 10.3049

EPHEMERIS_TYPE = 0
CLASSIFICATION_TYPE = U
NORAD_CAT_ID   = 28222
ELEMENT_SET_NO = 999
REV_AT_EPOCH   = 20273
BSTAR          = .53352908E-3
MEAN_MOTION_DOT = .49097E-3
MEAN_MOTION_DDOT = 0

CCSDS_OMM_VERS = 2.0
CREATION_DATE  = 
ORIGINATOR     = 

OBJECT_NAME    = SL-16 R/B
OBJECT_ID      = 2004-021B
CENTER_NAME    = EARTH
REF_FRAME      = TEME
TIME_SYSTEM    = UTC
MEAN_ELEMENT_THEORY = SGP/SGP4

EPOCH          = 2026-02-27T21:51:35.618688
MEAN_MOTION    = 14.14599702
ECCENTRICITY   = .00035278
INCLINATION    = 70.9990
RA_OF_ASC_NODE = 253.0154
ARG_OF_PERICENTER = 30.8482
MEAN_ANOMALY   = 329.2847

EPHEMERIS_TYPE = 0
CLASSIFICATION_TYPE = U
NORAD_CAT_ID   = 28353
ELEMENT_SET_NO = 999
REV_AT_EPOCH   = 12145
BSTAR          = .26062804E-4
MEAN_MOTION_DOT = .2E-7
MEAN_MOTION_DDOT = 0

CCSDS_OMM_VERS = 2.0
CREATION_DATE  = 
ORIGINATOR     = 

OBJECT_NAME    = CZ-4B R/B
OBJECT_ID      = 2004-035C
CENTER_NAME    = EARTH
REF_FRAME      = TEME
TIME_SYSTEM    = UTC
MEAN_ELEMENT_THEORY = SGP/SGP4

EPOCH          = 2026-02-27T19:56:00.672576
MEAN_MOTION    = 15.28854207
ECCENTRICITY   = .00322157
INCLINATION    = 97.3527
RA_OF_ASC_NODE = 93.1930
ARG_OF_PERICENTER = 7.2350
MEAN_ANOMALY   = 352.9349

EPHEMERIS_TYPE = 0
CLASSIFICATION_TYPE = U
NORAD_CAT_ID   = 28415
ELEMENT_SET_NO = 999
REV_AT_EPOCH   = 17840
BSTAR          = .30729859E-3
MEAN_MOTION_DOT = .8675E-4
MEAN_MOTION_DDOT = 0

CCSDS_OMM_VERS = 2.0
CREATION_DATE  = 
ORIGINATOR     = 

OBJECT_NAME    = CZ-2C R/B
OBJECT_ID      = 2004-046B
CENTER_NAME    = EARTH
REF_FRAME      = TEME
TIME_SYSTEM    = UTC
MEAN_ELEMENT_THEORY = SGP/SGP4

EPOCH          = 2026-02-27T09:19:20.346816
MEAN_MOTION    = 14.26988213
ECCENTRICITY   = .01392534
INCLINATION    = 98.1988
RA_OF_ASC_NODE = 334.0129
ARG_OF_PERICENTER = 184.8443
MEAN_ANOMALY   = 175.1401

EPHEMERIS_TYPE = 0
CLASSIFICATION_TYPE = U
NORAD_CAT_ID   = 28480
ELEMENT_SET_NO = 999
REV_AT_EPOCH   = 10703
BSTAR          = .60987235E-4
MEAN_MOTION_DOT = .123E-5
MEAN_MOTION_DDOT = 0

CCSDS_OMM_VERS = 2.0
CREATION_DATE  = 
ORIGINATOR     = 

OBJECT_NAME    = ARIANE 5 R/B
OBJECT_ID      = 2004-049H
CENTER_NAME    = EARTH
REF_FRAME      = TEME
TIME_SYSTEM    = UTC
MEAN_ELEMENT_THEORY = SGP/SGP4

EPOCH          = 2026-02-27T22:21:28.308960
MEAN_MOTION    = 14.85244464
ECCENTRICITY   = .00846389
INCLINATION    = 98.2611
RA_OF_ASC_NODE = 227.0245
ARG_OF_PERICENTER = 23.5300
MEAN_ANOMALY   = 336.9751

EPHEMERIS_TYPE = 0
CLASSIFICATION_TYPE = U
NORAD_CAT_ID   = 28499
ELEMENT_SET_NO = 999
REV_AT_EPOCH   = 14434
BSTAR          = .98435925E-4
MEAN_MOTION_DOT = .835E-5
MEAN_MOTION_DDOT = 0

CCSDS_OMM_VERS = 2.0
CREATION_DATE  = 
ORIGINATOR     = 

OBJECT_NAME    = CZ-2D R/B
OBJECT_ID      = 2005-024B
CENTER_NAME    = EARTH
REF_FRAME      = TEME
TIME_SYSTEM    = UTC
MEAN_ELEMENT_THEORY = SGP/SGP4

EPOCH          = 2026-02-27T22:58:12.809280
MEAN_MOTION    = 15.59159450
ECCENTRICITY   = .0007143
INCLINATION    = 97.3611
RA_OF_ASC_NODE = 73.7539
ARG_OF_PERICENTER = 70.2791
MEAN_ANOMALY   = 289.9236

EPHEMERIS_TYPE = 0
CLASSIFICATION_TYPE = U
NORAD_CAT_ID   = 28738
ELEMENT_SET_NO = 999
REV_AT_EPOCH   = 13826
BSTAR          = .5571125E-3
MEAN_MOTION_DOT = .43692E-3
MEAN_MOTION_DDOT = 0

