IDEFIX & ARIANE 42P R/B 
1 27422U 02021B   26058.84688091  .00000268  00000+0  11860-3 0  9991
2 27422  98.5859 357.5714 0011033 212.3468 147.7040 14.31017833242618
AQUA                    
1 27424U 02022A   26058.89068323  .00001080  00000+0  22544-3 0  9993
2 27424  98.4155  26.0786 0000793  51.2384 334.5155 14.61948355267304
CZ-4B R/B               
1 27432U 02024C   26058.90908452  .00000045  00000+0  45840-4 0  9997
2 27432  98.8862 112.3641 0050906  51.6946 121.6698 14.14545714227853
MIDORI II (ADEOS-II)    
1 27597U 02056A   26058.86300129  .00000290  00000+0  13172-3 0  9990
2 27597  98.7750  17.2739 0001914  56.9728 303.1637 14.29276149208894
H-2A R/B                
1 27601U 02056E   26058.86609037  .00000272  00000+0  10985-3 0  9995
2 27601  98.3183  19.6068 0069881 189.9328 224.7028 14.33752988212709
CZ-4B R/B               
1 28059U 03049C   26058.96229860  .00000452  00000+0  11535-3 0  9991
2 28059  98.6869  53.4863 0046998 261.2594  98.3277 14.55008725185182
CZ-2C R/B               
1 28222U 04012C   26058.81908233  .00049097  00000+0  53353-3 0  9998
2 28222  97.7260 123.1855 0013716 349.7928  10.3049 15.63222378202734
SL-16 R/B               
1 28353U 04021B   26058.91082892  .00000002  00000+0  26063-4 0  9990
2 28353  70.9990 253.0154 0003527  30.8482 329.2847 14.14599702121459
CZ-4B R/B               
1 28415U 04035C   26058.83056334  .00008675  00000+0  30730-3 0  9996
2 28415  97.3527  93.1930 0032215   7.2350 352.9349 15.28854207178407
CZ-2C R/B               
1 28480U 04046B   26058.38842994  .00000123  00000+0  60987-4 0  9993
2 28480  98.1988 334.0129 0139253 184.8443 175.1401 14.26988213107038
ARIANE 5 R/B            
1 28499U 04049H   26058.93157765  .00000835  00000+0  98436-4 0  9992
2 28499  98.2611 227.0245 0084638  23.5300 336.9751 14.85244464144347
CZ-2D R/B               
1 28738U 05024B   26058.95709270  .00043692  00000+0  55711-3 0  9994
2 28738  97.3611  73.7539 0007143  70.2791 289.9236 15.59159450138265
